satname,norad_id,inclination_deg,eccentricity,mean_motion_rev_per_day,perigee_km,apogee_km,l1,l2
STARLINK-1404,45686,53.1594,0.0001332,15.38667743,449.13842249410754,450.957450961253,1 45686U 20035AF  26101.85588898  .00047168  00000+0  12193-2 0  9991,2 45686  53.1594 254.7258 0001332 347.5321  12.5650 15.38667743324069
STARLINK-1413,45689,53.1571,0.0001583,15.30484246,473.2817421523696,475.4512447583975,1 45689U 20035AJ  26101.81639375  .00021651  00000+0  73452-3 0  9992,2 45689  53.1571 255.7039 0001583  66.5434 293.5734 15.30484246323965
STARLINK-1417,45693,53.0503,0.0003469,15.14295087,520.7253998602191,525.5134915822618,1 45693U 20035AN  26101.74958345  .00020754  00000+0  11336-2 0  9995,2 45693  53.0503 264.2720 0003469 336.6149  23.4685 15.14295087323909
STARLINK-1420,45695,53.0476,0.0005444,15.6086539,381.47414179096813,388.8380152948848,1 45695U 20035AQ  26101.79874868  .00090297  00000+0  10548-2 0  9992,2 45695  53.0476 221.8618 0005444 299.0035  61.0432 15.60865390324513
STARLINK-1422,45696,53.1548,0.000121,15.30626345,473.113273988266,474.7714771971596,1 45696U 20035AR  26101.82331582  .00018690  00000+0  63321-3 0  9993,2 45696  53.1548 255.6688 0001210  52.3439 307.7672 15.30626345324048
STARLINK-1351,45697,53.0465,0.000598,15.58812469,387.04484649607184,395.14084539182204,1 45697U 20035AS  26101.61443271  .00066756  00000+0  84725-3 0  9997,2 45697  53.0465 222.3158 0005980 304.6038  55.4409 15.58812469324493
STARLINK-1400,45700,53.0455,0.0005117,15.57076761,392.6560636654722,399.5888407888806,1 45700U 20035AV  26101.81802262  .00075749  00000+0  10242-2 0  9997,2 45700  53.0455 223.1310 0005117 254.9424 105.1021 15.57076761324493
STARLINK-1403,45701,53.1558,5.39e-05,15.29646076,476.5000008729985,477.2389705721589,1 45701U 20035AW  26101.66637892  .00021034  00000+0  73264-3 0  9998,2 45701  53.1558 243.5213 0000539 352.3145   7.7847 15.29646076324194
STARLINK-1407,45703,53.0302,0.0003095,15.66173682,367.7768685387482,371.9538820090429,1 45703U 20035AY  26101.87413105  .00040675  00000+0  39124-3 0  9991,2 45703  53.0302 153.2105 0003095 256.2860 103.7810 15.66173682325484
STARLINK-1411,45706,53.0393,0.0005471,15.70305395,354.3381427899485,361.7088496048873,1 45706U 20035BB  26101.91668980  .00086873  00000+0  69646-3 0  9994,2 45706  53.0393 178.1307 0005471 343.2233 210.3675 15.70305395  6177
STARLINK-1423,45710,53.046,0.0006723,15.59669869,384.0624931402763,393.16106354763724,1 45710U 20035BF  26101.79743561  .00079400  00000+0  97261-3 0  9996,2 45710  53.0460 221.6871 0006723 279.5789  80.4463 15.59669869324502
STARLINK-1433,45711,53.0447,0.0006124,15.620531,377.58758132425373,385.8670631461282,1 45711U 20035BG  26101.84088172  .00083158  00000+0  92903-3 0  9996,2 45711  53.0447 220.0058 0006124 274.9831  85.0483 15.62053100324535
STARLINK-1434,45712,53.0506,0.0002577,15.30082783,473.79888156982634,477.3312796221644,1 45712U 20035BH  26101.52776042  .00051859  00000+0  17570-2 0  9991,2 45712  53.0506 227.5673 0002577 255.5640 104.5074 15.30082783324412
STARLINK-1465,45731,53.0478,0.0005173,15.5550651,397.17398447765936,404.18734923579086,1 45731U 20038B   26101.28080840  .00062968  00000+0  90491-3 0  9999,2 45731  53.0478  66.1557 0005173  59.1069 301.0449 15.55506510321443
STARLINK-1471,45735,53.0483,0.0001778,15.508537,413.0245737161158,415.43994022389415,1 45735U 20038F   26101.85639581  .00018411  00000+0  32042-3 0  9990,2 45735  53.0483 342.8975 0001778  53.6153 306.5019 15.50853700322671
STARLINK-1480,45741,53.0516,0.0002923,15.57722371,392.27099145412376,396.2301292218963,1 45741U 20038M   26101.87506311  .00074971  00000+0  99000-3 0  9993,2 45741  53.0516  57.3221 0002923 123.7620 236.3670 15.57722371321632
STARLINK-1500,45744,53.0377,0.0003429,15.36686381,453.57266442497985,458.2594580143641,1 45744U 20038Q   26101.54261970  .00021680  00000+0  60515-3 0  9997,2 45744  53.0377  38.4243 0003429  45.4630 314.6651 15.36686381321868
STARLINK-1504,45746,53.024,8.57e-05,15.55599767,399.82881945160534,400.9906623629977,1 45746U 20038S   26101.86475664  .00024233  00000+0  35317-3 0  9990,2 45746  53.0240 341.8504 0000857  83.0366 277.0741 15.55599767322670
STARLINK-1506,45747,53.0764,0.0003747,15.27080188,481.97467379490536,487.11756852590315,1 45747U 20038T   26101.85249057  .00020972  00000+0  78970-3 0  9993,2 45747  53.0764  48.8690 0003747  24.5399 335.5777 15.27080188321757
STARLINK-1464,45751,53.049,0.0003462,15.48215822,419.59118657369254,424.29956361020686,1 45751U 20038X   26101.15291965  .00075762  00000+0  14096-2 0  9991,2 45751  53.0490  49.8308 0003462  66.8031 293.3340 15.48215822321677
STARLINK-1477,45754,53.0472,0.0003301,15.16180846,515.1197241126938,519.6721549593749,1 45754U 20038AA  26101.61238894  .00025303  00000+0  13063-2 0  9996,2 45754  53.0472  63.1170 0003301  82.7189 277.4179 15.16180846321528
STARLINK-1478,45755,53.0487,0.0003453,15.60973341,382.5090017095863,387.1795165671465,1 45755U 20038AB  26101.54073365  .00097689  00000+0  11353-2 0  9995,2 45755  53.0487  38.3426 0003453  58.7083 301.4267 15.60973341321858
STARLINK-1493,45759,53.0501,0.0004832,15.56241278,395.27229234306924,401.8212795538093,1 45759U 20038AF  26101.84825806  .00070348  00000+0  98230-3 0  9990,2 45759  53.0501  44.6555 0004832 120.7167 239.4321 15.56241278321793
STARLINK-1494,45760,53.0475,0.0004819,15.82167781,321.08156062704984,327.5413804629625,1 45760U 20038AG  26101.69389730  .00131193  00000+0  61945-3 0  9995,2 45760  53.0475 346.5953 0004819 138.2691 221.8699 15.82167781322601
STARLINK-1502,45764,53.0489,0.0006228,15.52666536,404.7172207469466,413.17120910826,1 45764U 20038AL  26101.83382083  .00064993  00000+0  10349-2 0  9993,2 45764  53.0489  47.0598 0006228 108.5828 251.5858 15.52666536321779
STARLINK-1470,45772,53.0454,0.0003489,15.31136342,470.0305862295272,474.81090542456514,1 45772U 20038AU  26101.47827022  .00045860  00000+0  15064-2 0  9990,2 45772  53.0454  21.7930 0003489 118.0054 242.1299 15.31136342322097
STARLINK-1482,45773,53.1607,0.0003648,15.33163769,463.883168154377,468.8769277925794,1 45773U 20038AV  26101.11697619  .00047615  00000+0  14674-2 0  9995,2 45773  53.1607  40.1218 0003648 114.3734 245.7650 15.33163769321818
STARLINK-1496,45780,53.0508,3.86e-05,15.54269868,404.01406265151854,404.53766492460363,1 45780U 20038BC  26101.50424755  .00083193  00000+0  12460-2 0  9997,2 45780  53.0508  20.1172 0000386 179.2320 180.8690 15.54269868322105
STARLINK-1513,45786,53.1605,0.0001458,15.30188321,474.25071721396216,476.24916484596724,1 45786U 20038BJ  26101.80509804  .00001071  00000+0  48285-4 0  9996,2 45786  53.1605  37.3340 0001458  92.2947 267.8221 15.30188321321919
STARLINK-1522,46027,53.0644,0.0002331,15.10785967,532.1905588142936,535.412904651027,1 46027U 20055A   26101.84505206  .00016948  00000+0  10243-2 0  9990,2 46027  53.0644 336.8747 0002331 146.5418 213.5721 15.10785967313893
STARLINK-1523,46028,53.162,0.0001556,15.30191274,474.17473817020164,476.30750944233023,1 46028U 20055B   26101.89811140  .00000772  00000+0  38215-4 0  9992,2 46028  53.1620 332.4553 0001556  84.7970 275.3208 15.30191274313980
STARLINK-1526,46029,53.1591,0.0001372,15.30229931,474.18543466236224,476.0659699478747,1 46029U 20055C   26101.89176955  .00008498  00000+0  29844-3 0  9991,2 46029  53.1591 332.4944 0001372  88.0990 272.0168 15.30229931313977
STARLINK-1555,46032,53.1604,0.0001148,15.30203289,474.4184853855668,475.9920127659543,1 46032U 20055F   26101.35347649  .00002575  00000+0  99035-4 0  9996,2 46032  53.1604 334.9782 0001148  96.2119 263.9013 15.30203289313895
STARLINK-1556,46033,53.1548,0.0001234,15.29352159,476.90172308138517,478.59375543503484,1 46033U 20055G   26101.85793706  .00001210  00000+0  54275-4 0  9993,2 46033  53.1548 332.6349 0001234  67.6784 292.4347 15.29352159313945
STARLINK-1557,46034,53.1571,0.000127,15.29350516,476.8819515125033,478.6233474834753,1 46034U 20055H   26101.85170138  .00000113  00000+0  16261-4 0  9996,2 46034  53.1571 332.5682 0001270  89.0944 271.0202 15.29350516313945
STARLINK-1558,46035,53.1601,0.0001075,15.301793,474.54013459314683,476.0136185766123,1 46035U 20055J   26101.60841444 -.00002973  00000+0 -88369-4 0  9991,2 46035  53.1601 333.8034 0001075  89.9521 270.1603 15.30179300313934
STARLINK-1560,46036,53.1563,0.0001289,15.29350802,476.8680706973382,478.63551882862794,1 46036U 20055K   26101.84847007  .00000564  00000+0  31871-4 0  9997,2 46036  53.1563 332.6193 0001289  80.7624 279.3522 15.29350802313976
STARLINK-1567,46038,53.0866,0.0001758,15.81712975,324.41770807771536,326.77474067940693,1 46038U 20055M   26101.73645019  .02299751  00000+0  97438-2 0  9995,2 46038  53.0866 327.9654 0001758 129.9747 230.1429 15.81712975314013
STARLINK-1569,46039,53.1592,0.0001104,15.3017592,474.53035089558125,476.0435869079156,1 46039U 20055N   26101.67688729  .00004759  00000+0  17283-3 0  9995,2 46039  53.1592 333.4811 0001104 100.5558 259.5567 15.30175920313933
STARLINK-1582,46043,53.1606,0.0001222,15.30201235,474.3739027621423,476.0488611066867,1 46043U 20055S   26101.35662797  .00001867  00000+0  75138-4 0  9993,2 46043  53.1606 334.9602 0001222  89.6693 270.4447 15.30201235313888
STARLINK-1591,46045,53.1614,0.0001466,15.301892,474.24261032148206,476.25202260306924,1 46045U 20055U   26101.90548397 -.00001378  00000+0 -34427-4 0  9990,2 46045  53.1614 332.4224 0001466  91.4112 268.7057 15.30189200313951
STARLINK-1524,46047,53.1588,0.0001243,15.30186258,474.40422409894563,476.10797762381844,1 46047U 20055W   26101.89965958 -.00000353  00000+0  20926-6 0  9998,2 46047  53.1588 319.5841 0001243  90.4655 269.6488 15.30186258314159
STARLINK-1527,46048,53.162,0.0001496,15.30182004,474.24353325004176,476.2940722662279,1 46048U 20055X   26101.77536990  .00000375  00000+0  24807-4 0  9999,2 46048  53.1620 320.2602 0001496  93.3533 266.7639 15.30182004314115
